OBJECT_NAME,OBJECT_ID,EPOCH,MEAN_MOTION,ECCENTRICITY,INCLINATION,RA_OF_ASC_NODE,ARG_OF_PERICENTER,MEAN_ANOMALY,EPHEMERIS_TYPE,CLASSIFICATION_TYPE,NORAD_CAT_ID,ELEMENT_SET_NO,REV_AT_EPOCH,BSTAR,MEAN_MOTION_DOT,MEAN_MOTION_DDOT
SCD 1,1993-009B,2026-06-06T16:56:42.000288,14.46115352,.00420674,24.9697,272.2934,27.3556,195.1516,0,U,22490,999,75959,.64441903E-4,.421E-5,0
TECHSAT 1B (GO-32),1998-043D,2026-06-06T14:21:22.435776,14.24426350,.00004642,99.0065,150.0898,193.9791,166.1374,0,U,25397,999,44982,.49896193E-4,.69E-6,0
SCD 2,1998-060A,2026-06-06T17:28:52.000032,14.45521731,.00167821,24.9937,136.6572,13.5623,343.0044,0,U,25504,999,45880,.63932562E-4,.411E-5,0
DLR-TUBSAT,1999-029B,2026-06-06T19:43:50.188224,14.52424196,.00146815,98.6693,152.9851,26.2174,333.9761,0,U,25757,999,43174,.4131829E-4,.12E-5,0
TERRA,1999-068A,2026-06-06T22:47:36.971808,14.61094985,.00008794,97.9460,207.9015,241.8114,174.8380,0,U,25994,999,40811,.91562476E-4,.406E-5,0
MAROC-TUBSAT,2001-056D,2026-06-06T18:28:20.995680,13.70261951,.00200084,99.8080,334.4332,167.4602,204.3011,0,U,27004,999,22476,.2132192E-4,-.28E-6,0
AQUA,2002-022A,2026-06-06T20:41:25.708704,14.62142370,.00015068,98.4272,126.9391,55.3541,29.1016,0,U,27424,999,28176,.18286171E-3,.87E-5,0
SHIYAN-1 (SY-1),2004-012A,2026-06-06T22:33:31.028544,15.33498459,.00064492,97.8686,235.3448,65.6499,294.5415,0,U,28220,999,20952,.47656066E-3,.15368E-3,0
AURA,2004-026A,2026-06-06T22:05:53.693376,14.61313509,.00013477,98.3412,114.2895,71.0018,289.1328,0,U,28376,999,16471,.18189254E-3,.85E-5,0
IRS-P5 (CARTOSAT-1),2005-017A,2026-06-06T19:27:16.169184,14.91022033,.00026467,97.5311,181.3459,93.0459,267.1063,0,U,28649,999,14227,.16589921E-3,.1588E-4,0
SINAH 1,2005-043D,2026-06-06T22:33:30.228480,14.64150815,.00133908,98.2848,292.2025,311.8594,48.1465,0,U,28893,999,9902,.76136698E-4,.351E-5,0
RESURS-DK 1,2006-021A,2026-06-06T20:31:39.036288,15.13170757,.00063345,69.9339,6.2973,300.4331,59.6209,0,U,29228,999,10101,.15266689E-3,.2607E-4,0
ARIRANG-2 (KOMPSAT-2),2006-031A,2026-06-06T22:01:52.367808,14.64654198,.00158185,97.8307,342.8614,103.9503,5.7515,0,U,29268,999,5997,.98339676E-4,.479E-5,0
LAPAN-TUBSAT,2007-001A,2026-06-06T22:50:17.827872,14.85940063,.00111292,98.1344,156.9452,214.2641,145.7856,0,U,29709,999,4963,.95220739E-4,.774E-5,0
HAIYANG-1B,2007-010A,2026-06-06T15:45:44.815680,14.31024275,.00124456,98.3489,139.9106,229.3816,130.6286,0,U,31113,999,99912,.56406721E-4,.107E-5,0
COSMO-SKYMED 1,2007-023A,2026-06-06T21:48:36.983232,14.97054692,.00012913,97.8860,349.6792,80.4734,279.6633,0,U,31598,999,2825,.19182169E-3,.215E-4,0
TERRASAR-X,2007-026A,2026-06-06T10:55:28.835904,15.19152015,.0001807,97.4446,165.3145,76.8069,283.3367,0,U,31698,999,5159,.42342E-4,.822E-5,0
WORLDVIEW-1 (WV-1),2007-041A,2026-06-06T22:03:56.463264,15.24152691,.00031482,97.3863,277.8126,48.8511,311.2997,0,U,32060,999,4131,.28211857E-3,.6795E-4,0
YAOGAN-3,2007-055A,2026-06-06T22:11:54.667392,14.90743213,.00019807,97.8160,187.9047,87.3281,272.8164,0,U,32289,999,434,.2553687E-3,.2453E-4,0
COSMO-SKYMED 2,2007-059A,2026-06-06T21:35:10.095360,14.82163161,.00014399,97.8885,341.6468,87.7815,272.3563,0,U,32376,999,48,.62739477E-4,.447E-5,0
RADARSAT-2,2007-061A,2026-06-06T21:24:32.096160,14.29982860,.00013134,98.5780,164.9718,81.8762,278.2569,0,U,32382,999,96448,.4636036E-4,.76E-6,0
CARTOSAT-2A,2008-021A,2026-06-06T21:35:53.016288,14.79223828,.001258,97.7634,206.9594,139.0183,221.1977,0,U,32783,999,97728,.14394515E-3,.102E-4,0
HUANJING 1A (HJ-1A),2008-041A,2026-06-06T23:37:55.797312,14.83962930,.00190559,97.6684,144.2180,167.1702,193.0002,0,U,33320,999,95689,.16863499E-3,.1355E-4,0
HUANJING 1B (HJ-1B),2008-041B,2026-06-06T22:46:45.534432,14.83301275,.0035102,97.6521,147.3868,215.2446,144.6447,0,U,33321,999,95689,.15724279E-3,.1248E-4,0
GEOEYE 1,2008-042A,2026-06-06T21:43:06.446208,14.64716169,.00055791,98.1236,231.9663,94.0498,266.1342,0,U,33331,999,94864,.10491342E-3,.511E-5,0
THEOS,2008-049A,2026-06-06T23:08:20.998752,14.20131141,.00013059,98.5570,215.5795,79.4345,280.6979,0,U,33396,999,91651,-.49787545E-4,-.148E-5,0
COSMO-SKYMED 3,2008-054A,2026-06-06T22:00:50.077728,15.06889924,.00142139,97.8294,16.3174,305.6477,54.3426,0,U,33412,999,95539,.28476757E-3,.4194E-4,0
YAOGAN-4,2008-061A,2026-06-06T13:48:29.847744,14.83180349,.0015704,97.9307,91.1644,103.7531,256.5431,0,U,33446,999,94409,.15E-3,.1173E-4,0
GOSAT (IBUKI),2009-002A,2026-06-06T13:40:58.838016,14.67539173,.0001545,98.0880,268.7848,91.3741,268.7641,0,U,33492,999,92990,.17705E-4,.52E-6,0
DEIMOS-1,2009-041A,2026-06-06T22:40:01.312896,14.75227769,.00009342,97.7398,315.6170,136.8156,223.3127,0,U,35681,999,90537,.13091773E-3,.838E-5,0
