SCD 1                   
1 22490U 93009B   26157.70604167  .00000421  00000+0  64442-4 0  9990
2 22490  24.9697 272.2934 0042067  27.3556 195.1516 14.46115352759597
TECHSAT 1B (GO-32)      
1 25397U 98043D   26157.59817634  .00000069  00000+0  49896-4 0  9998
2 25397  99.0065 150.0898 0000464 193.9791 166.1374 14.24426350449827
SCD 2                   
1 25504U 98060A   26157.72837963  .00000411  00000+0  63933-4 0  9998
2 25504  24.9937 136.6572 0016782  13.5623 343.0044 14.45521731458802
DLR-TUBSAT              
1 25757U 99029B   26157.82210866  .00000120  00000+0  41318-4 0  9992
2 25757  98.6693 152.9851 0014681  26.2174 333.9761 14.52424196431741
TERRA                   
1 25994U 99068A   26157.94973347  .00000406  00000+0  91562-4 0  9994
2 25994  97.9460 207.9015 0000879 241.8114 174.8380 14.61094985408117
MAROC-TUBSAT            
1 27004U 01056D   26157.76968745 -.00000028  00000+0  21322-4 0  9992
2 27004  99.8080 334.4332 0020008 167.4602 204.3011 13.70261951224764
AQUA                    
1 27424U 02022A   26157.86210311  .00000870  00000+0  18286-3 0  9990
2 27424  98.4272 126.9391 0001506  55.3541  29.1016 14.62142370281762
SHIYAN-1 (SY-1)         
1 28220U 04012A   26157.93994246  .00015368  00000+0  47656-3 0  9991
2 28220  97.8686 235.3448 0006449  65.6499 294.5415 15.33498459209520
AURA                    
1 28376U 04026A   26157.92076034  .00000850  00000+0  18189-3 0  9992
2 28376  98.3412 114.2895 0001347  71.0018 289.1328 14.61313509164712
IRS-P5 (CARTOSAT-1)     
1 28649U 05017A   26157.81060381  .00001588  00000+0  16590-3 0  9995
2 28649  97.5311 181.3459 0002646  93.0459 267.1063 14.91022033142272
SINAH 1                 
1 28893U 05043D   26157.93993320  .00000351  00000+0  76137-4 0  9997
2 28893  98.2848 292.2025 0013390 311.8594  48.1465 14.64150815 99023
RESURS-DK 1             
1 29228U 06021A   26157.85531292  .00002607  00000+0  15267-3 0  9996
2 29228  69.9339   6.2973 0006334 300.4331  59.6209 15.13170757101012
ARIRANG-2 (KOMPSAT-2)   
1 29268U 06031A   26157.91796722  .00000479  00000+0  98340-4 0  9998
2 29268  97.8307 342.8614 0015818 103.9503   5.7515 14.64654198 59976
LAPAN-TUBSAT            
1 29709U 07001A   26157.95159523  .00000774  00000+0  95221-4 0  9995
2 29709  98.1344 156.9452 0011129 214.2641 145.7856 14.85940063 49632
HAIYANG-1B              
1 31113U 07010A   26157.65676870  .00000107  00000+0  56407-4 0  9996
2 31113  98.3489 139.9106 0012445 229.3816 130.6286 14.31024275999123
COSMO-SKYMED 1          
1 31598U 07023A   26157.90876138  .00002150  00000+0  19182-3 0  9992
2 31598  97.8860 349.6792 0001291  80.4734 279.6633 14.97054692 28255
TERRASAR-X              
1 31698U 07026A   26157.45519486  .00000822  00000+0  42342-4 0  9995
2 31698  97.4446 165.3145 0001807  76.8069 283.3367 15.19152015 51592
WORLDVIEW-1 (WV-1)      
1 32060U 07041A   26157.91940351  .00006795  00000+0  28212-3 0  9990
2 32060  97.3863 277.8126 0003148  48.8511 311.2997 15.24152691 41312
YAOGAN-3                
1 32289U 07055A   26157.92493828  .00002453  00000+0  25537-3 0  9995
2 32289  97.8160 187.9047 0001980  87.3281 272.8164 14.90743213  4345
COSMO-SKYMED 2          
1 32376U 07059A   26157.89942240  .00000447  00000+0  62739-4 0  9996
2 32376  97.8885 341.6468 0001439  87.7815 272.3563 14.82163161   486
RADARSAT-2              
1 32382U 07061A   26157.89203815  .00000076  00000+0  46360-4 0  9994
2 32382  98.5780 164.9718 0001313  81.8762 278.2569 14.29982860964482
CARTOSAT-2A             
1 32783U 08021A   26157.89991917  .00001020  00000+0  14395-3 0  9995
2 32783  97.7634 206.9594 0012580 139.0183 221.1977 14.79223828977285
HUANJING 1A (HJ-1A)     
1 33320U 08041A   26157.98467358  .00001355  00000+0  16863-3 0  9995
2 33320  97.6684 144.2180 0019055 167.1702 193.0002 14.83962930956894
HUANJING 1B (HJ-1B)     
1 33321U 08041B   26157.94913813  .00001248  00000+0  15724-3 0  9990
2 33321  97.6521 147.3868 0035102 215.2446 144.6447 14.83301275956897
GEOEYE 1                
1 33331U 08042A   26157.90493572  .00000511  00000+0  10491-3 0  9991
2 33331  98.1236 231.9663 0005579  94.0498 266.1342 14.64716169948644
THEOS                   
1 33396U 08049A   26157.96413193 -.00000148  00000+0 -49788-4 0  9996
2 33396  98.5570 215.5795 0001305  79.4345 280.6979 14.20131141916516
COSMO-SKYMED 3          
1 33412U 08054A   26157.91724627  .00004194  00000+0  28477-3 0  9997
2 33412  97.8294  16.3174 0014213 305.6477  54.3426 15.06889924955396
YAOGAN-4                
1 33446U 08061A   26157.57534546  .00001173  00000+0  15000-3 0  9995
2 33446  97.9307  91.1644 0015704 103.7531 256.5431 14.83180349944092
GOSAT (IBUKI)           
1 33492U 09002A   26157.57012544  .00000052  00000+0  17705-4 0  9991
2 33492  98.0880 268.7848 0001545  91.3741 268.7641 14.67539173929908
DEIMOS-1                
1 35681U 09041A   26157.94445964  .00000838  00000+0  13092-3 0  9999
2 35681  97.7398 315.6170 0000934 136.8156 223.3127 14.75227769905371
